*******************************************************************************
Ephemeris / WWW_USER Tue Mar 11 05:38:39 2025 Pasadena, USA      / Horizons    
*******************************************************************************
Target body name: (2018 RA1)                      {source: JPL#6}
Center body name: Earth (399)                     {source: DE441}
Center-site name: Gemini South Obs., Cerro Pachon
*******************************************************************************
Start time      : A.D. 2018-Sep-03 22:37:00.0000 UT      
Stop  time      : A.D. 2018-Sep-04 10:46:00.0000 UT      
Step-size       : 1 minutes
*******************************************************************************
Target pole/equ : undefined
Target radii    : undefined                                                    
Center geodetic : 289.2634, -30.2406227, 2.71233  {E-lon(deg),Lat(deg),Alt(km)}
Center cylindric: 289.2634,5517.21435,-3194.81213 {E-lon(deg),Dxy(km),Dz(km)}
Center pole/equ : ITRF93                          {East-longitude positive}
Center radii    : 6378.137, 6378.137, 6356.752 km {Equator_a, b, pole_c}       
Target primary  : Sun
Vis. interferer : MOON (R_eq= 1737.400) km        {source: DE441}
Rel. light bend : Sun                             {source: DE441}
Rel. lght bnd GM: 1.3271E+11 km^3/s^2                                          
Small-body perts: Yes                             {source: SB441-N16}
Atmos refraction: NO (AIRLESS)
RA format       : HMS
Time format     : CAL 
Calendar mode   : Mixed Julian/Gregorian
RTS-only print  : NO       
EOP file        : eop.250310.p250606                                           
EOP coverage    : DATA-BASED 1962-JAN-20 TO 2025-MAR-10. PREDICTS-> 2025-JUN-05
Units conversion: 1 au= 149597870.700 km, c= 299792.458 km/s, 1 day= 86400.0 s 
Table cut-offs 1: Elevation (-90.0deg=NO ),Airmass (>38.000=NO), Daylight (YES)
Table cut-offs 2: Solar elongation (  0.0,180.0=NO ),Local Hour Angle( 0.0=NO )
Table cut-offs 3: RA/DEC angular rate (     0.0=NO )                           
*******************************************************************************
Initial IAU76/J2000 heliocentric ecliptic osculating elements (au, days, deg.):
  EPOCH=  2458369.5 ! 2018-Sep-08.00 (TDB)         Residual RMS= .21275        
   EC= .3232115344739424   QR= .7703453101153647   TP= 2458436.6763547547      
   OM= 166.2054176892707   W=  269.7217787981747   IN= 8.763099478405824       
  Equivalent ICRF heliocentric cartesian coordinates (au, au/d):
   X= 9.899686155013647E-01  Y=-2.468208982240139E-01  Z=-1.030323866474361E-01
  VX=-9.411283005844916E-04 VY= 1.717513364149167E-02 VZ= 4.613440841260365E-03
Asteroid physical parameters (km, seconds, rotational period in hours):        
   GM= n.a.                RAD= n.a.               ROTPER= n.a.                
   H= 26.4                 G= .150                 B-V= n.a.                   
                           ALBEDO= n.a.            STYP= n.a.                  
*******************************************************************************
 Date__(UT)__HR:MN     R.A._________(ICRF)_________DEC
******************************************************
$$SOE
 2018-Sep-04 00:40     22 25 00.386396 +11 30 16.00928
 2018-Sep-04 00:41     22 25 00.293753 +11 30 13.29985
 2018-Sep-04 00:42     22 25 00.200897 +11 30 10.58943
 2018-Sep-04 00:43     22 25 00.107828 +11 30 07.87801
 2018-Sep-04 00:44     22 25 00.014547 +11 30 05.16559
 2018-Sep-04 00:45     22 24 59.921055 +11 30 02.45216
 2018-Sep-04 00:46     22 24 59.827352 +11 29 59.73773
 2018-Sep-04 00:47     22 24 59.733439 +11 29 57.02228
 2018-Sep-04 00:48     22 24 59.639316 +11 29 54.30583
 2018-Sep-04 00:49     22 24 59.544984 +11 29 51.58836
 2018-Sep-04 00:50     22 24 59.450443 +11 29 48.86987
 2018-Sep-04 00:51     22 24 59.355695 +11 29 46.15036
 2018-Sep-04 00:52     22 24 59.260739 +11 29 43.42982
 2018-Sep-04 00:53     22 24 59.165577 +11 29 40.70826
 2018-Sep-04 00:54     22 24 59.070209 +11 29 37.98568
 2018-Sep-04 00:55     22 24 58.974635 +11 29 35.26206
 2018-Sep-04 00:56     22 24 58.878856 +11 29 32.53740
 2018-Sep-04 00:57     22 24 58.782873 +11 29 29.81171
 2018-Sep-04 00:58     22 24 58.686686 +11 29 27.08498
 2018-Sep-04 00:59     22 24 58.590297 +11 29 24.35721
 2018-Sep-04 01:00     22 24 58.493705 +11 29 21.62840
 2018-Sep-04 01:01     22 24 58.396912 +11 29 18.89854
 2018-Sep-04 01:02     22 24 58.299917 +11 29 16.16762
 2018-Sep-04 01:03     22 24 58.202722 +11 29 13.43566
 2018-Sep-04 01:04     22 24 58.105327 +11 29 10.70264
 2018-Sep-04 01:05     22 24 58.007733 +11 29 07.96856
 2018-Sep-04 01:06     22 24 57.909941 +11 29 05.23342
 2018-Sep-04 01:07     22 24 57.811950 +11 29 02.49722
 2018-Sep-04 01:08     22 24 57.713763 +11 28 59.75996
 2018-Sep-04 01:09     22 24 57.615379 +11 28 57.02163
 2018-Sep-04 01:10     22 24 57.516799 +11 28 54.28223
 2018-Sep-04 01:11     22 24 57.418024 +11 28 51.54175
 2018-Sep-04 01:12     22 24 57.319055 +11 28 48.80020
 2018-Sep-04 01:13     22 24 57.219892 +11 28 46.05757
 2018-Sep-04 01:14     22 24 57.120535 +11 28 43.31386
 2018-Sep-04 01:15     22 24 57.020987 +11 28 40.56907
 2018-Sep-04 01:16     22 24 56.921246 +11 28 37.82320
 2018-Sep-04 01:17     22 24 56.821314 +11 28 35.07623
 2018-Sep-04 01:18     22 24 56.721193 +11 28 32.32818
 2018-Sep-04 01:19     22 24 56.620881 +11 28 29.57903
 2018-Sep-04 01:20     22 24 56.520381 +11 28 26.82879
 2018-Sep-04 01:21     22 24 56.419692 +11 28 24.07745
 2018-Sep-04 01:22     22 24 56.318816 +11 28 21.32501
 2018-Sep-04 01:23     22 24 56.217752 +11 28 18.57147
 2018-Sep-04 01:24     22 24 56.116503 +11 28 15.81683
 2018-Sep-04 01:25     22 24 56.015069 +11 28 13.06107
 2018-Sep-04 01:26     22 24 55.913450 +11 28 10.30421
 2018-Sep-04 01:27     22 24 55.811647 +11 28 07.54624
 2018-Sep-04 01:28     22 24 55.709660 +11 28 04.78715
 2018-Sep-04 01:29     22 24 55.607492 +11 28 02.02694
 2018-Sep-04 01:30     22 24 55.505141 +11 27 59.26562
 2018-Sep-04 01:31     22 24 55.402610 +11 27 56.50318
 2018-Sep-04 01:32     22 24 55.299898 +11 27 53.73961
 2018-Sep-04 01:33     22 24 55.197007 +11 27 50.97492
 2018-Sep-04 01:34     22 24 55.093938 +11 27 48.20909
 2018-Sep-04 01:35     22 24 54.990690 +11 27 45.44214
 2018-Sep-04 01:36     22 24 54.887265 +11 27 42.67406
 2018-Sep-04 01:37     22 24 54.783664 +11 27 39.90484
 2018-Sep-04 01:38     22 24 54.679887 +11 27 37.13448
 2018-Sep-04 01:39     22 24 54.575935 +11 27 34.36299
 2018-Sep-04 01:40     22 24 54.471809 +11 27 31.59035
 2018-Sep-04 01:41     22 24 54.367510 +11 27 28.81657
 2018-Sep-04 01:42     22 24 54.263038 +11 27 26.04164
 2018-Sep-04 01:43     22 24 54.158394 +11 27 23.26556
 2018-Sep-04 01:44     22 24 54.053579 +11 27 20.48834
 2018-Sep-04 01:45     22 24 53.948595 +11 27 17.70996
 2018-Sep-04 01:46     22 24 53.843440 +11 27 14.93042
 2018-Sep-04 01:47     22 24 53.738117 +11 27 12.14973
 2018-Sep-04 01:48     22 24 53.632627 +11 27 09.36788
 2018-Sep-04 01:49     22 24 53.526969 +11 27 06.58487
 2018-Sep-04 01:50     22 24 53.421145 +11 27 03.80069
 2018-Sep-04 01:51     22 24 53.315156 +11 27 01.01535
 2018-Sep-04 01:52     22 24 53.209002 +11 26 58.22884
 2018-Sep-04 01:53     22 24 53.102684 +11 26 55.44116
 2018-Sep-04 01:54     22 24 52.996203 +11 26 52.65231
 2018-Sep-04 01:55     22 24 52.889561 +11 26 49.86229
 2018-Sep-04 01:56     22 24 52.782757 +11 26 47.07109
 2018-Sep-04 01:57     22 24 52.675792 +11 26 44.27871
 2018-Sep-04 01:58     22 24 52.568668 +11 26 41.48515
 2018-Sep-04 01:59     22 24 52.461385 +11 26 38.69041
 2018-Sep-04 02:00     22 24 52.353944 +11 26 35.89449
 2018-Sep-04 02:01     22 24 52.246346 +11 26 33.09737
 2018-Sep-04 02:02     22 24 52.138591 +11 26 30.29908
 2018-Sep-04 02:03     22 24 52.030681 +11 26 27.49959
 2018-Sep-04 02:04     22 24 51.922617 +11 26 24.69890
 2018-Sep-04 02:05     22 24 51.814398 +11 26 21.89703
 2018-Sep-04 02:06     22 24 51.706027 +11 26 19.09395
 2018-Sep-04 02:07     22 24 51.597504 +11 26 16.28968
 2018-Sep-04 02:08     22 24 51.488830 +11 26 13.48421
 2018-Sep-04 02:09     22 24 51.380005 +11 26 10.67754
 2018-Sep-04 02:10     22 24 51.271031 +11 26 07.86966
 2018-Sep-04 02:11     22 24 51.161908 +11 26 05.06058
 2018-Sep-04 02:12     22 24 51.052637 +11 26 02.25029
 2018-Sep-04 02:13     22 24 50.943220 +11 25 59.43879
 2018-Sep-04 02:14     22 24 50.833657 +11 25 56.62608
 2018-Sep-04 02:15     22 24 50.723948 +11 25 53.81216
 2018-Sep-04 02:16     22 24 50.614096 +11 25 50.99702
 2018-Sep-04 02:17     22 24 50.504100 +11 25 48.18066
 2018-Sep-04 02:18     22 24 50.393961 +11 25 45.36309
 2018-Sep-04 02:19     22 24 50.283682 +11 25 42.54429
 2018-Sep-04 02:20     22 24 50.173261 +11 25 39.72428
 2018-Sep-04 02:21     22 24 50.062701 +11 25 36.90304
 2018-Sep-04 02:22     22 24 49.952002 +11 25 34.08057
 2018-Sep-04 02:23     22 24 49.841164 +11 25 31.25687
 2018-Sep-04 02:24     22 24 49.730190 +11 25 28.43195
 2018-Sep-04 02:25     22 24 49.619080 +11 25 25.60579
 2018-Sep-04 02:26     22 24 49.507834 +11 25 22.77840
 2018-Sep-04 02:27     22 24 49.396455 +11 25 19.94978
 2018-Sep-04 02:28     22 24 49.284941 +11 25 17.11992
 2018-Sep-04 02:29     22 24 49.173296 +11 25 14.28882
 2018-Sep-04 02:30     22 24 49.061518 +11 25 11.45649
 2018-Sep-04 02:31     22 24 48.949610 +11 25 08.62291
 2018-Sep-04 02:32     22 24 48.837573 +11 25 05.78809
 2018-Sep-04 02:33     22 24 48.725406 +11 25 02.95202
 2018-Sep-04 02:34     22 24 48.613112 +11 25 00.11471
 2018-Sep-04 02:35     22 24 48.500690 +11 24 57.27615
 2018-Sep-04 02:36     22 24 48.388143 +11 24 54.43634
 2018-Sep-04 02:37     22 24 48.275471 +11 24 51.59528
 2018-Sep-04 02:38     22 24 48.162674 +11 24 48.75296
 2018-Sep-04 02:39     22 24 48.049754 +11 24 45.90940
 2018-Sep-04 02:40     22 24 47.936712 +11 24 43.06457
 2018-Sep-04 02:41     22 24 47.823549 +11 24 40.21849
 2018-Sep-04 02:42     22 24 47.710265 +11 24 37.37115
